{
  "type": "FeatureCollection",
  "features": [
    {
      "type": "Feature",
      "properties": {
        "norad_id": 64902,
        "name": "CO3D 2",
        "group": "resource",
        "lat": -51.977883929587584,
        "lon": -135.8397957103236,
        "alt_km": 512.519569601106,
        "timestamp": "2025-12-03T08:58:45.657221+00:00",
        "meta_object_name": "CO3D 2",
        "meta_object_id": "2025-156D",
        "meta_epoch": "2025-12-03T04:48:00.616896",
        "meta_mean_motion": 15.20214372,
        "meta_eccentricity": 9.9e-05,
        "meta_inclination": 97.4353,
        "meta_ra_of_asc_node": 53.6032,
        "meta_arg_of_pericenter": 114.0205,
        "meta_mean_anomaly": 246.1134,
        "meta_ephemeris_type": 0,
        "meta_classification_type": "U",
        "meta_norad_cat_id": 64902,
        "meta_element_set_no": 999,
        "meta_rev_at_epoch": 1975,
        "meta_bstar": 0.00039192,
        "meta_mean_motion_dot": 8.429e-05,
        "meta_mean_motion_ddot": 0,
        "tle_line1": "1 64902U 25156D   25337.20000714  .00008429  00000+0  39192-3 0  9993",
        "tle_line2": "2 64902  97.4353  53.6032 0000990 114.0205 246.1134 15.20214372 19754"
      },
      "geometry": {
        "type": "Point",
        "coordinates": [
          -135.8397957103236,
          -51.977883929587584
        ]
      }
    },
    {
      "type": "Feature",
      "properties": {
        "norad_id": 64903,
        "name": "CO3D 1",
        "group": "resource",
        "lat": -51.16920269112254,
        "lon": -135.5627295558601,
        "alt_km": 512.433993354688,
        "timestamp": "2025-12-03T08:58:45.657231+00:00",
        "meta_object_name": "CO3D 1",
        "meta_object_id": "2025-156E",
        "meta_epoch": "2025-12-03T04:48:13.754016",
        "meta_mean_motion": 15.20217772,
        "meta_eccentricity": 0.0001042,
        "meta_inclination": 97.4353,
        "meta_ra_of_asc_node": 53.6032,
        "meta_arg_of_pericenter": 119.4886,
        "meta_mean_anomaly": 240.6454,
        "meta_ephemeris_type": 0,
        "meta_classification_type": "U",
        "meta_norad_cat_id": 64903,
        "meta_element_set_no": 999,
        "meta_rev_at_epoch": 1975,
        "meta_bstar": 0.00039075,
        "meta_mean_motion_dot": 8.404e-05,
        "meta_mean_motion_ddot": 0,
        "tle_line1": "1 64903U 25156E   25337.20015919  .00008404  00000+0  39075-3 0  9990",
        "tle_line2": "2 64903  97.4353  53.6032 0001042 119.4886 240.6454 15.20217772 19759"
      },
      "geometry": {
        "type": "Point",
        "coordinates": [
          -135.5627295558601,
          -51.16920269112254
        ]
      }
    },
    {
      "type": "Feature",
      "properties": {
        "norad_id": 66514,
        "name": "SENTINEL-6B",
        "group": "resource",
        "lat": 21.357145928103698,
        "lon": -168.00522537100815,
        "alt_km": 1320.48743471955,
        "timestamp": "2025-12-03T08:58:45.657242+00:00",
        "meta_object_name": "SENTINEL-6B",
        "meta_object_id": "2025-264A",
        "meta_epoch": "2025-12-03T01:23:27.973824",
        "meta_mean_motion": 12.85877453,
        "meta_eccentricity": 0.0011537,
        "meta_inclination": 66.0389,
        "meta_ra_of_asc_node": 182.6439,
        "meta_arg_of_pericenter": 268.7049,
        "meta_mean_anomaly": 91.2647,
        "meta_ephemeris_type": 0,
        "meta_classification_type": "U",
        "meta_norad_cat_id": 66514,
        "meta_element_set_no": 999,
        "meta_rev_at_epoch": 204,
        "meta_bstar": 0.00030684,
        "meta_mean_motion_dot": 1.4e-07,
        "meta_mean_motion_ddot": 0,
        "tle_line1": "1 66514U 25264A   25337.05796266  .00000014  00000+0  30684-3 0  9990",
        "tle_line2": "2 66514  66.0389 182.6439 0011537 268.7049  91.2647 12.85877453  2047"
      },
      "geometry": {
        "type": "Point",
        "coordinates": [
          -168.00522537100815,
          21.357145928103698
        ]
      }
    }
  ]
}